{
  "type": "FeatureCollection",
  "features": [
    {
      "type": "Feature",
      "properties": {
        "norad_id": 66697,
        "name": "IRIDE FM3",
        "group": "last-30-days",
        "lat": -35.44987696005132,
        "lon": 73.4312576323387,
        "alt_km": 518.5376463877692,
        "timestamp": "2025-12-22T11:33:19.154207+00:00",
        "meta_object_name": "IRIDE FM3",
        "meta_object_id": "2025-276AH",
        "meta_epoch": "2025-12-22T03:48:12.040416",
        "meta_mean_motion": 15.18149151,
        "meta_eccentricity": 0.0001151,
        "meta_inclination": 97.4393,
        "meta_ra_of_asc_node": 67.7757,
        "meta_arg_of_pericenter": 158.7612,
        "meta_mean_anomaly": 201.367,
        "meta_ephemeris_type": 0,
        "meta_classification_type": "U",
        "meta_norad_cat_id": 66697,
        "meta_element_set_no": 999,
        "meta_rev_at_epoch": 355,
        "meta_bstar": 0.00057776,
        "meta_mean_motion_dot": 0.0001174,
        "meta_mean_motion_ddot": 0,
        "tle_line1": "1 66697U 25276AH  25356.15847269  .00011740  00000+0  57776-3 0  9996",
        "tle_line2": "2 66697  97.4393  67.7757 0001151 158.7612 201.3670 15.18149151  3556"
      },
      "geometry": {
        "type": "Point",
        "coordinates": [
          73.4312576323387,
          -35.44987696005132
        ]
      }
    },
    {
      "type": "Feature",
      "properties": {
        "norad_id": 66698,
        "name": "IRIDE FM4",
        "group": "last-30-days",
        "lat": -74.297463153186,
        "lon": -139.63076356412216,
        "alt_km": 518.1749087072867,
        "timestamp": "2025-12-22T11:33:19.154218+00:00",
        "meta_object_name": "IRIDE FM4",
        "meta_object_id": "2025-276AJ",
        "meta_epoch": "2025-12-22T02:30:58.381632",
        "meta_mean_motion": 15.1736515,
        "meta_eccentricity": 0.0004699,
        "meta_inclination": 97.4392,
        "meta_ra_of_asc_node": 67.6949,
        "meta_arg_of_pericenter": 285.5539,
        "meta_mean_anomaly": 74.5176,
        "meta_ephemeris_type": 0,
        "meta_classification_type": "U",
        "meta_norad_cat_id": 66698,
        "meta_element_set_no": 999,
        "meta_rev_at_epoch": 354,
        "meta_bstar": 0.0023117,
        "meta_mean_motion_dot": 0.00046357,
        "meta_mean_motion_ddot": 0,
        "tle_line1": "1 66698U 25276AJ  25356.10484238  .00046357  00000+0  23117-2 0  9998",
        "tle_line2": "2 66698  97.4392  67.6949 0004699 285.5539  74.5176 15.17365150  3543"
      },
      "geometry": {
        "type": "Point",
        "coordinates": [
          -139.63076356412216,
          -74.297463153186
        ]
      }
    },
    {
      "type": "Feature",
      "properties": {
        "norad_id": 66699,
        "name": "IRIDE FM5",
        "group": "last-30-days",
        "lat": -70.39737270232544,
        "lon": -133.46466748811832,
        "alt_km": 526.551746037263,
        "timestamp": "2025-12-22T11:33:19.154231+00:00",
        "meta_object_name": "IRIDE FM5",
        "meta_object_id": "2025-276AK",
        "meta_epoch": "2025-12-22T02:31:17.978880",
        "meta_mean_motion": 15.15481481,
        "meta_eccentricity": 0.0004199,
        "meta_inclination": 97.4418,
        "meta_ra_of_asc_node": 67.699,
        "meta_arg_of_pericenter": 267.7607,
        "meta_mean_anomaly": 92.3144,
        "meta_ephemeris_type": 0,
        "meta_classification_type": "U",
        "meta_norad_cat_id": 66699,
        "meta_element_set_no": 999,
        "meta_rev_at_epoch": 354,
        "meta_bstar": -0.056174,
        "meta_mean_motion_dot": -0.00979316,
        "meta_mean_motion_ddot": 0,
        "tle_line1": "1 66699U 25276AK  25356.10506920 -.00979316  00000+0 -56174-1 0  9992",
        "tle_line2": "2 66699  97.4418  67.6990 0004199 267.7607  92.3144 15.15481481  3549"
      },
      "geometry": {
        "type": "Point",
        "coordinates": [
          -133.46466748811832,
          -70.39737270232544
        ]
      }
    },
    {
      "type": "Feature",
      "properties": {
        "norad_id": 66700,
        "name": "IRIDE FM6",
        "group": "last-30-days",
        "lat": -32.13511576731782,
        "lon": 72.81491597619292,
        "alt_km": 518.4433002889909,
        "timestamp": "2025-12-22T11:33:19.154241+00:00",
        "meta_object_name": "IRIDE FM6",
        "meta_object_id": "2025-276AL",
        "meta_epoch": "2025-12-22T02:12:25.369056",
        "meta_mean_motion": 15.18202434,
        "meta_eccentricity": 0.0001559,
        "meta_inclination": 97.4426,
        "meta_ra_of_asc_node": 67.7216,
        "meta_arg_of_pericenter": 165.1354,
        "meta_mean_anomaly": 194.9926,
        "meta_ephemeris_type": 0,
        "meta_classification_type": "U",
        "meta_norad_cat_id": 66700,
        "meta_element_set_no": 999,
        "meta_rev_at_epoch": 354,
        "meta_bstar": 0.0005656,
        "meta_mean_motion_dot": 0.00011509,
        "meta_mean_motion_ddot": 0,
        "tle_line1": "1 66700U 25276AL  25356.09196029  .00011509  00000+0  56560-3 0  9998",
        "tle_line2": "2 66700  97.4426  67.7216 0001559 165.1354 194.9926 15.18202434  3549"
      },
      "geometry": {
        "type": "Point",
        "coordinates": [
          72.81491597619292,
          -32.13511576731782
        ]
      }
    },
    {
      "type": "Feature",
      "properties": {
        "norad_id": 66701,
        "name": "IRIDE FM7",
        "group": "last-30-days",
        "lat": -75.07539748801555,
        "lon": -141.29469477711817,
        "alt_km": 519.0534435652553,
        "timestamp": "2025-12-22T11:33:19.154253+00:00",
        "meta_object_name": "IRIDE FM7",
        "meta_object_id": "2025-276AM",
        "meta_epoch": "2025-12-22T02:30:44.611200",
        "meta_mean_motion": 15.17366363,
        "meta_eccentricity": 0.0002992,
        "meta_inclination": 97.4425,
        "meta_ra_of_asc_node": 67.7049,
        "meta_arg_of_pericenter": 260.0923,
        "meta_mean_anomaly": 99.9973,
        "meta_ephemeris_type": 0,
        "meta_classification_type": "U",
        "meta_norad_cat_id": 66701,
        "meta_element_set_no": 999,
        "meta_rev_at_epoch": 354,
        "meta_bstar": 0.0005946,
        "meta_mean_motion_dot": 0.00011817,
        "meta_mean_motion_ddot": 0,
        "tle_line1": "1 66701U 25276AM  25356.10468300  .00011817  00000+0  59460-3 0  9999",
        "tle_line2": "2 66701  97.4425  67.7049 0002992 260.0923  99.9973 15.17366363  3549"
      },
      "geometry": {
        "type": "Point",
        "coordinates": [
          -141.29469477711817,
          -75.07539748801555
        ]
      }
    },
    {
      "type": "Feature",
      "properties": {
        "norad_id": 66702,
        "name": "IRIDE FM8",
        "group": "last-30-days",
        "lat": -75.88631413427316,
        "lon": -143.24736990659136,
        "alt_km": 519.1628023826788,
        "timestamp": "2025-12-22T11:33:19.154263+00:00",
        "meta_object_name": "IRIDE FM8",
        "meta_object_id": "2025-276AN",
        "meta_epoch": "2025-12-22T02:30:29.708064",
        "meta_mean_motion": 15.17373991,
        "meta_eccentricity": 0.0002844,
        "meta_inclination": 97.4403,
        "meta_ra_of_asc_node": 67.6977,
        "meta_arg_of_pericenter": 268.1844,
        "meta_mean_anomaly": 91.9063,
        "meta_ephemeris_type": 0,
        "meta_classification_type": "U",
        "meta_norad_cat_id": 66702,
        "meta_element_set_no": 999,
        "meta_rev_at_epoch": 354,
        "meta_bstar": 0.00053229,
        "meta_mean_motion_dot": 0.00010572,
        "meta_mean_motion_ddot": 0,
        "tle_line1": "1 66702U 25276AN  25356.10451051  .00010572  00000+0  53229-3 0  9999",
        "tle_line2": "2 66702  97.4403  67.6977 0002844 268.1844  91.9063 15.17373991  3549"
      },
      "geometry": {
        "type": "Point",
        "coordinates": [
          -143.24736990659136,
          -75.88631413427316
        ]
      }
    },
    {
      "type": "Feature",
      "properties": {
        "norad_id": 66703,
        "name": "PELICAN-6",
        "group": "last-30-days",
        "lat": -81.07472115628217,
        "lon": -168.24880047973164,
        "alt_km": 520.6276916480219,
        "timestamp": "2025-12-22T11:33:19.154274+00:00",
        "meta_object_name": "PELICAN-6",
        "meta_object_id": "2025-276AP",
        "meta_epoch": "2025-12-22T04:00:01.998720",
        "meta_mean_motion": 15.17309176,
        "meta_eccentricity": 9.26e-05,
        "meta_inclination": 97.4407,
        "meta_ra_of_asc_node": 67.7644,
        "meta_arg_of_pericenter": 252.8025,
        "meta_mean_anomaly": 93.889,
        "meta_ephemeris_type": 0,
        "meta_classification_type": "U",
        "meta_norad_cat_id": 66703,
        "meta_element_set_no": 999,
        "meta_rev_at_epoch": 469,
        "meta_bstar": 0.002356,
        "meta_mean_motion_dot": 0.00047165,
        "meta_mean_motion_ddot": 0,
        "tle_line1": "1 66703U 25276AP  25356.16668980  .00047165  00000+0  23560-2 0  9999",
        "tle_line2": "2 66703  97.4407  67.7644 0000926 252.8025  93.8890 15.17309176  4696"
      },
      "geometry": {
        "type": "Point",
        "coordinates": [
          -168.24880047973164,
          -81.07472115628217
        ]
      }
    }
  ]
}